     2.10           GLONASS NAV DATA                        RINEX VERSION / TYPE
SPIDER V4,0,0,3554                      2015 03 13 00:27    PGM / RUN BY / DATE 
  2015     2    10   5.122274160385e-009                    CORR TO SYSTEM TIME 
    16                                                      LEAP SECONDS        
                                                            END OF HEADER       
18 15 02 10 19 45  0.0 3.732740879059D-05 9.094947017729D-13 7.020000000000D+04
    2.447381298828D+04 6.948423385620D-01 0.000000000000D+00 0.000000000000D+00
    5.086549316406D+03 2.951335906982D-02-9.313225746155D-10-3.000000000000D+00
   -4.886801269531D+03 3.503975868225D+00 9.313225746155D-10 0.000000000000D+00
 6 15 02 10 19 45  0.0 6.234925240278D-05 0.000000000000D+00 7.020000000000D+04
    7.367635742188D+03 1.551802635193D+00 1.862645149231D-09 0.000000000000D+00
   -1.809279345703D+04-1.625682830811D+00-1.862645149231D-09-4.000000000000D+00
    1.636581445313D+04-2.495329856873D+00-9.313225746155D-10 0.000000000000D+00
14 15 02 10 19 45  0.0 1.299167051911D-04 3.637978807092D-12 7.020000000000D+04
    1.012821044922D+04 5.659360885620D-01-0.000000000000D+00 0.000000000000D+00
    2.020071728516D+04 1.528383255005D+00 0.000000000000D+00-7.000000000000D+00
    1.175110302734D+04-3.116277694702D+00-0.000000000000D+00 0.000000000000D+00
15 15 02 10 19 45  0.0 3.881100565195D-05 9.094947017729D-13 7.020000000000D+04
    1.146714453125D+04 7.664089202881D-01 9.313225746155D-10 0.000000000000D+00
    5.318867675781D+03 2.939873695374D+00-0.000000000000D+00 0.000000000000D+00
    2.218555615234D+04-1.091412544250D+00-9.313225746155D-10 0.000000000000D+00
 5 15 02 10 19 45  0.0 2.054497599602D-06 0.000000000000D+00 7.020000000000D+04
    1.854928759766D+04-1.467351913452D-01 9.313225746155D-10 0.000000000000D+00
   -1.750874267578D+04-5.155467987061D-02-1.862645149231D-09 1.000000000000D+00
   -5.265502929688D+02-3.556942939758D+00 9.313225746155D-10 0.000000000000D+00
16 15 02 10 19 45  0.0-2.180691808462D-05 9.094947017729D-13 7.020000000000D+04
    5.884325195313D+03 5.187749862671D-01 1.862645149231D-09 0.000000000000D+00
   -1.507784033203D+04 2.656905174255D+00-9.313225746155D-10-1.000000000000D+00
    1.971222021484D+04 1.867181777954D+00-9.313225746155D-10 0.000000000000D+00
17 15 02 10 19 45  0.0 1.484723761678D-04 9.094947017729D-13 7.020000000000D+04
    1.904045312500D+04-1.548761367798D+00 0.000000000000D+00 0.000000000000D+00
    1.181514990234D+04-6.505708694458D-01-0.000000000000D+00 4.000000000000D+00
    1.225057275391D+04 3.038969993591D+00-0.000000000000D+00 0.000000000000D+00
24 15 02 10 19 45  0.0-1.210495829582D-04-0.000000000000D+00 7.020000000000D+04
    1.751084960938D+03-2.962026596069D+00 0.000000000000D+00 0.000000000000D+00
    1.155971142578D+04-9.421091079712D-01 0.000000000000D+00 2.000000000000D+00
    2.265276953125D+04 7.095918655396D-01-1.862645149231D-09 0.000000000000D+00
18 15 02 10 20 15  0.0 3.733020275831D-05 9.094947017729D-13 7.200000000000D+04
    2.495352587891D+04-1.749992370605D-01 0.000000000000D+00 0.000000000000D+00
    4.888289550781D+03-2.104864120483D-01-9.313225746155D-10-3.000000000000D+00
    1.528278808594D+03 3.577393531799D+00 0.000000000000D+00 0.000000000000D+00
 6 15 02 10 20 15  0.0 6.235018372536D-05 0.000000000000D+00 7.200000000000D+04
    9.549095703125D+03 8.746423721313D-01 9.313225746155D-10 0.000000000000D+00
   -2.075370556641D+04-1.286164283752D+00-1.862645149231D-09-4.000000000000D+00
    1.129800488281D+04-3.098899841309D+00-0.000000000000D+00 0.000000000000D+00
14 15 02 10 20 15  0.0 1.299241557717D-04 3.637978807092D-12 7.200000000000D+04
    1.112183007813D+04 4.944257736206D-01-9.313225746155D-10 0.000000000000D+00
    2.217908105469D+04 6.617479324341D-01 9.313225746155D-10-7.000000000000D+00
    5.758254394531D+03-3.499008178711D+00-0.000000000000D+00 0.000000000000D+00
15 15 02 10 20 15  0.0 3.880262374878D-05 9.094947017729D-13 7.200000000000D+04
    1.314506640625D+04 1.066451072693D+00 0.000000000000D+00 0.000000000000D+00
    1.019075732422D+04 2.433004379272D+00-0.000000000000D+00 0.000000000000D+00
    1.939182519531D+04-1.992424964905D+00-9.313225746155D-10 0.000000000000D+00
 5 15 02 10 20 15  0.0 2.055428922176D-06 0.000000000000D+00 7.200000000000D+04
    1.776934375000D+04-6.848211288452D-01 0.000000000000D+00 0.000000000000D+00
   -1.699250292969D+04 6.458158493042D-01-1.862645149231D-09 1.000000000000D+00
   -6.826030761719D+03-3.397068977356D+00 9.313225746155D-10 0.000000000000D+00
16 15 02 10 20 15  0.0-2.180412411690D-05 9.094947017729D-13 7.200000000000D+04
    7.279101562500D+03 1.032755851746D+00 9.313225746155D-10 0.000000000000D+00
   -1.005084667969D+04 2.877932548523D+00-9.313225746155D-10-1.000000000000D+00
    2.226710058594D+04 9.528865814209D-01-9.313225746155D-10 0.000000000000D+00
17 15 02 10 20 15  0.0 1.484761014581D-04 1.818989403546D-12 7.200000000000D+04
    1.556220996094D+04-2.290719032288D+00 0.000000000000D+00 0.000000000000D+00
    1.072669335938D+04-5.201368331909D-01-0.000000000000D+00 4.000000000000D+00
    1.717843017578D+04 2.401048660278D+00-9.313225746155D-10 0.000000000000D+00
24 15 02 10 20 15  0.0-1.210505142808D-04-0.000000000000D+00 7.200000000000D+04
   -3.768377929688D+03-3.120328903198D+00 0.000000000000D+00 0.000000000000D+00
    1.024654150391D+04-5.026178359985D-01 9.313225746155D-10 2.000000000000D+00
    2.303631738281D+04-2.861890792847D-01-2.793967723846D-09 0.000000000000D+00
18 15 02 10 20 45  0.0 3.733206540346D-05 9.094947017729D-13 7.380000000000D+04
    2.383192041016D+04-1.064523696899D+00 0.000000000000D+00 0.000000000000D+00
    4.476867187500D+03-2.052555084229D-01-0.000000000000D+00-3.000000000000D+00
    7.824753906250D+03 3.373111724854D+00 0.000000000000D+00 0.000000000000D+00
 6 15 02 10 20 45  0.0 6.235111504793D-05 0.000000000000D+00 7.380000000000D+04
    1.055821582031D+04 2.667083740234D-01 9.313225746155D-10 0.000000000000D+00
   -2.257349169922D+04-6.989212036133D-01-2.793967723846D-09-4.000000000000D+00
    5.354341308594D+03-3.462161064148D+00 0.000000000000D+00 0.000000000000D+00
14 15 02 10 20 45  0.0 1.299316063523D-04 3.637978807092D-12 7.380000000000D+04
    1.175285791016D+04 1.656961441040D-01-9.313225746155D-10 0.000000000000D+00
    2.259070996094D+04-1.922206878662D-01 1.862645149231D-09-7.000000000000D+00
   -6.818266601563D+02-3.609960556030D+00 0.000000000000D+00 0.000000000000D+00
15 15 02 10 20 45  0.0 3.880448639393D-05 9.094947017729D-13 7.380000000000D+04
    1.517168212891D+04 1.143305778503D+00-0.000000000000D+00 0.000000000000D+00
    1.395964892578D+04 1.730339050293D+00 0.000000000000D+00 0.000000000000D+00
    1.510572265625D+04-2.739008903503D+00-9.313225746155D-10 0.000000000000D+00
16 15 02 10 20 45  0.0-2.180226147175D-05 9.094947017729D-13 7.380000000000D+04
    9.575162597656D+03 1.501749038696D+00 9.313225746155D-10 0.000000000000D+00
   -4.900611328125D+03 2.795002937317D+00-9.313225746155D-10-1.000000000000D+00
    2.309735253906D+04-3.662872314453D-02-9.313225746155D-10 0.000000000000D+00
17 15 02 10 20 45  0.0 1.484788954258D-04 1.818989403546D-12 7.380000000000D+04
    1.091406689453D+04-2.833330154419D+00 0.000000000000D+00 0.000000000000D+00
    1.006403125000D+04-1.886243820190D-01 0.000000000000D+00 4.000000000000D+00
    2.078321435547D+04 1.578376770020D+00-1.862645149231D-09 0.000000000000D+00
19 15 02 10 20 45  0.0-1.179948449135D-04-9.094947017729D-13 7.455000000000D+04
    2.238933984375D+04 1.576796531677D+00-0.000000000000D+00 0.000000000000D+00
   -4.255051269531D+03-9.776687622070D-02-9.313225746155D-10 3.000000000000D+00
   -1.145511669922D+04 3.116250038147D+00 1.862645149231D-09 0.000000000000D+00
18 15 02 10 21 15  0.0 3.733392804861D-05 9.094947017729D-13 7.560000000000D+04
    2.118041503906D+04-1.855929374695D+00 0.000000000000D+00 0.000000000000D+00
    4.291013671875D+03 3.457164764404D-02-0.000000000000D+00-3.000000000000D+00
    1.351424853516D+04 2.907463073730D+00-0.000000000000D+00 0.000000000000D+00
15 15 02 10 21 15  0.0 3.880728036165D-05 9.094947017729D-13 7.560000000000D+04
    1.710077148438D+04 9.547109603882D-01-0.000000000000D+00 0.000000000000D+00
    1.636647705078D+04 9.388465881348D-01 9.313225746155D-10 0.000000000000D+00
    9.658404296875D+03-3.274447441101D+00-0.000000000000D+00 0.000000000000D+00
17 15 02 10 21 15  0.0 1.484807580709D-04 9.094947017729D-13 7.560000000000D+04
    5.527480957031D+03-3.101902961731D+00 0.000000000000D+00 0.000000000000D+00
    1.011914794922D+04 2.613286972046D-01 0.000000000000D+00 4.000000000000D+00
    2.278743310547D+04 6.340942382813D-01-1.862645149231D-09 0.000000000000D+00
19 15 02 10 21 15  0.0-1.179967075586D-04-9.094947017729D-13 7.560000000000D+04
    2.448422900391D+04 7.321996688843D-01-0.000000000000D+00 0.000000000000D+00
   -4.607620605469D+03-2.549266815186D-01-9.313225746155D-10 3.000000000000D+00
   -5.475423828125D+03 3.484696388245D+00 9.313225746155D-10 0.000000000000D+00
16 15 02 10 21 15  0.0-2.179946750402D-05 9.094947017729D-13 7.560000000000D+04
    1.259493066406D+04 1.820732116699D+00 0.000000000000D+00 0.000000000000D+00
   -1.539941406250D+02 2.438225746155D+00-9.313225746155D-10-1.000000000000D+00
    2.213614208984D+04-1.024625778198D+00-9.313225746155D-10 0.000000000000D+00
 9 15 02 10 21 15  0.0-4.674308001995D-06 0.000000000000D+00 7.596000000000D+04
    1.146922851563D+03 1.591562271118D+00 9.313225746155D-10 0.000000000000D+00
   -1.485576171875D+04 2.350869178772D+00-1.862645149231D-09-2.000000000000D+00
    2.065196044922D+04 1.611021995544D+00-9.313225746155D-10 0.000000000000D+00
